HAIYANG 2A              
1 37781U 11043A   17346.67504600 -.00000661  00000-0 -60706-3 0  9991
2 37781  99.3283 354.9203 0000376 129.5452 230.5680 13.78715118318572
